{"spkid": "50838153", "covariance": {"epoch": "2458874.5", "data": [["2.745784482939428E-15", "-4.391677112542477E-15", "-1.161048066104808E-12", "-1.190506438514823E-13", "-1.216352717169536E-12", "-4.872572404259472E-13"], ["-4.391677112542477E-15", "7.126177106744045E-15", "2.014801792968331E-12", "1.938060225286286E-13", "2.000385404151762E-12", "7.445590061238716E-13"], ["-1.161048066104808E-12", "2.014801792968331E-12", "1.071963911295051E-9", "5.445620110895165E-12", "1.001372573929753E-9", "1.142645003555693E-10"], ["-1.190506438514823E-13", "1.938060225286286E-13", "5.445620110895165E-12", "3.973245018142242E-11", "-3.052503672923199E-11", "1.214093983755945E-11"], ["-1.216352717169536E-12", "2.000385404151762E-12", "1.001372573929753E-9", "-3.052503672923199E-11", "1.073699042791367E-9", "1.663126037056005E-10"], ["-4.872572404259472E-13", "7.445590061238716E-13", "1.142645003555693E-10", "1.214093983755945E-11", "1.663126037056005E-10", "1.986699861270187E-10"]], "elements": [{"name": "e", "sigma": 5.24002336153135e-08, "title": "eccentricity", "value": ".3547760971854212", "units": null, "label": "e"}, {"sigma": 8.44166873713014e-08, "name": "q", "title": "perihelion distance", "value": "1.00748038868351", "units": "au", "label": "q"}, {"sigma": 3.27408599657225e-05, "name": "tp", "units": "TDB", "title": "time of perihelion passage", "value": "2459215.488393860828", "label": "tp"}, {"title": "longitude of the ascending node", "value": "325.0814935061037", "units": "deg", "name": "om", "sigma": 6.30336816165948e-06, "label": "node"}, {"title": "argument of perihelion", "value": "152.4219351940943", "units": "deg", "name": "w", "sigma": 3.27673472040592e-05, "label": "peri"}, {"label": "i", "name": "i", "sigma": 1.40950340945674e-05, "title": "inclination", "value": "19.24707187013826", "units": "deg"}], "labels": ["e", "q", "tp", "node", "peri", "i"]}, "elements": [{"sigma": "5.2433E-8", "name": "e", "value": ".3545592721630979", "title": "eccentricity", "units": null, "label": "e"}, {"label": "a", "sigma": "1.5739E-8", "name": "a", "value": "1.560980142253234", "title": "semi-major axis", "units": "au"}, {"label": "q", "units": "au", "value": "1.007520159154879", "title": "perihelion distance", "name": "q", "sigma": "8.4629E-8"}, {"value": "19.24808947796143", "title": "inclination; angle with respect to x-y ecliptic plane", "units": "deg", "name": "i", "sigma": "1.4094E-5", "label": "i"}, {"label": "node", "name": "om", "sigma": "6.3043E-6", "units": "deg", "value": "325.0527530476165", "title": "longitude of the ascending node"}, {"label": "peri", "name": "w", "sigma": "3.2783E-5", "value": "152.4801049975193", "title": "argument of perihelion", "units": "deg"}, {"name": "ma", "sigma": "2.8594E-5", "units": "deg", "title": "mean anomaly", "value": "283.0564048175091", "label": "M"}, {"label": "tp", "value": "2461352.752512564577", "title": "time of perihelion passage", "units": "TDB", "name": "tp", "sigma": "5.8633E-5"}, {"label": "period", "units": "d", "value": "712.3517479687566", "title": "sidereal orbital period", "name": "per", "sigma": "1.0773E-5"}, {"label": "n", "units": "deg/d", "value": ".5053683114086911", "title": "mean motion", "name": "n", "sigma": "7.643E-9"}, {"units": "au", "value": "2.11444012535159", "title": "aphelion distance", "sigma": "2.1319E-8", "name": "ad", "label": "Q"}], "epoch": "2461200.5"}